[{"OBJECT_NAME":"STARLINK-31712","OBJECT_ID":"2024-071H","EPOCH":"2026-03-09T03:58:58.275264","MEAN_MOTION":15.27576127,"ECCENTRICITY":8.367e-5,"INCLINATION":42.9962,"RA_OF_ASC_NODE":354.1129,"ARG_OF_PERICENTER":63.8061,"MEAN_ANOMALY":296.2877,"EPHEMERIS_TYPE":0,"CLASSIFICATION_TYPE":"U","NORAD_CAT_ID":59491,"ELEMENT_SET_NO":999,"REV_AT_EPOCH":10799,"BSTAR":-0.00011946925,"MEAN_MOTION_DOT":-3.547e-5,"MEAN_MOTION_DDOT":0},{"OBJECT_NAME":"PHISAT 2","OBJECT_ID":"2024-149C","EPOCH":"2026-03-09T18:55:12.732384","MEAN_MOTION":15.29548632,"ECCENTRICITY":0.00011753,"INCLINATION":97.3806,"RA_OF_ASC_NODE":148.6498,"ARG_OF_PERICENTER":168.623,"MEAN_ANOMALY":191.5037,"EPHEMERIS_TYPE":0,"CLASSIFICATION_TYPE":"U","NORAD_CAT_ID":60470,"ELEMENT_SET_NO":999,"REV_AT_EPOCH":8679,"BSTAR":0.00031420974,"MEAN_MOTION_DOT":8.925e-5,"MEAN_MOTION_DDOT":0}]
